{
  "type": "FeatureCollection",
  "features": [
    {
      "type": "Feature",
      "properties": {
        "norad_id": 65731,
        "name": "1998-067XK",
        "group": "stations",
        "lat": -18.135726795833083,
        "lon": -102.44741605636848,
        "alt_km": 367.7959084447275,
        "timestamp": "2025-12-27T10:28:57.550102+00:00",
        "meta_object_name": "1998-067XK",
        "meta_object_id": "1998-067XK",
        "meta_epoch": "2025-12-26T21:23:13.987104",
        "meta_mean_motion": 15.68524225,
        "meta_eccentricity": 0.0005094,
        "meta_inclination": 51.628,
        "meta_ra_of_asc_node": 65.2916,
        "meta_arg_of_pericenter": 333.5043,
        "meta_mean_anomaly": 26.5692,
        "meta_ephemeris_type": 0,
        "meta_classification_type": "U",
        "meta_norad_cat_id": 65731,
        "meta_element_set_no": 999,
        "meta_rev_at_epoch": 1536,
        "meta_bstar": 0.0010262,
        "meta_mean_motion_dot": 0.00119786,
        "meta_mean_motion_ddot": 0,
        "tle_line1": "1 65731U 98067XK  25360.89113411  .00119786  00000+0  10262-2 0  9990",
        "tle_line2": "2 65731  51.6280  65.2916 0005094 333.5043  26.5692 15.68524225 15369"
      },
      "geometry": {
        "type": "Point",
        "coordinates": [
          -102.44741605636848,
          -18.135726795833083
        ]
      }
    },
    {
      "type": "Feature",
      "properties": {
        "norad_id": 65732,
        "name": "RSP-03",
        "group": "stations",
        "lat": -5.1066676378823805,
        "lon": 57.370959197525224,
        "alt_km": 348.8947352894711,
        "timestamp": "2025-12-27T10:28:57.550112+00:00",
        "meta_object_name": "RSP-03",
        "meta_object_id": "1998-067XL",
        "meta_epoch": "2025-12-27T04:24:34.201152",
        "meta_mean_motion": 15.72475718,
        "meta_eccentricity": 0.0006157,
        "meta_inclination": 51.626,
        "meta_ra_of_asc_node": 62.7293,
        "meta_arg_of_pericenter": 342.7468,
        "meta_mean_anomaly": 17.332,
        "meta_ephemeris_type": 0,
        "meta_classification_type": "U",
        "meta_norad_cat_id": 65732,
        "meta_element_set_no": 999,
        "meta_rev_at_epoch": 1543,
        "meta_bstar": 0.001234,
        "meta_mean_motion_dot": 0.00171198,
        "meta_mean_motion_ddot": 0,
        "tle_line1": "1 65732U 98067XL  25361.18372918  .00171198  00000+0  12340-2 0  9997",
        "tle_line2": "2 65732  51.6260  62.7293 0006157 342.7468  17.3320 15.72475718 15433"
      },
      "geometry": {
        "type": "Point",
        "coordinates": [
          57.370959197525224,
          -5.1066676378823805
        ]
      }
    },
    {
      "type": "Feature",
      "properties": {
        "norad_id": 65733,
        "name": "GHS-01",
        "group": "stations",
        "lat": -33.5961378827051,
        "lon": 27.489815194004194,
        "alt_km": 324.9423343932767,
        "timestamp": "2025-12-27T10:28:57.550122+00:00",
        "meta_object_name": "GHS-01",
        "meta_object_id": "1998-067XM",
        "meta_epoch": "2025-12-26T21:01:30.345024",
        "meta_mean_motion": 15.81574264,
        "meta_eccentricity": 0.0009494,
        "meta_inclination": 51.6277,
        "meta_ra_of_asc_node": 62.1658,
        "meta_arg_of_pericenter": 4.8401,
        "meta_mean_anomaly": 355.2691,
        "meta_ephemeris_type": 0,
        "meta_classification_type": "U",
        "meta_norad_cat_id": 65733,
        "meta_element_set_no": 999,
        "meta_rev_at_epoch": 1541,
        "meta_bstar": 0.0015055,
        "meta_mean_motion_dot": 0.00319127,
        "meta_mean_motion_ddot": 0,
        "tle_line1": "1 65733U 98067XM  25360.87604566  .00319127  00000+0  15055-2 0  9992",
        "tle_line2": "2 65733  51.6277  62.1658 0009494   4.8401 355.2691 15.81574264 15410"
      },
      "geometry": {
        "type": "Point",
        "coordinates": [
          27.489815194004194,
          -33.5961378827051
        ]
      }
    },
    {
      "type": "Feature",
      "properties": {
        "norad_id": 65941,
        "name": "YOTSUBA-KULOVER",
        "group": "stations",
        "lat": -24.08200534757909,
        "lon": 45.259191200033115,
        "alt_km": 385.37635963077264,
        "timestamp": "2025-12-27T10:28:57.550133+00:00",
        "meta_object_name": "YOTSUBA-KULOVER",
        "meta_object_id": "1998-067XN",
        "meta_epoch": "2025-12-26T14:38:51.631584",
        "meta_mean_motion": 15.61332207,
        "meta_eccentricity": 0.00025713,
        "meta_inclination": 51.6289,
        "meta_ra_of_asc_node": 70.1673,
        "meta_arg_of_pericenter": 5.6559,
        "meta_mean_anomaly": 354.4463,
        "meta_ephemeris_type": 0,
        "meta_classification_type": "U",
        "meta_norad_cat_id": 65941,
        "meta_element_set_no": 999,
        "meta_rev_at_epoch": 1202,
        "meta_bstar": 0.00084261791,
        "meta_mean_motion_dot": 0.0007325,
        "meta_mean_motion_ddot": 0,
        "tle_line1": "1 65941U 98067XN  25360.61031981  .00073250  00000+0  84262-3 0  9991",
        "tle_line2": "2 65941  51.6289  70.1673 0002571   5.6559 354.4463 15.61332207 12021"
      },
      "geometry": {
        "type": "Point",
        "coordinates": [
          45.259191200033115,
          -24.08200534757909
        ]
      }
    },
    {
      "type": "Feature",
      "properties": {
        "norad_id": 65942,
        "name": "BOTAN",
        "group": "stations",
        "lat": 24.291649489653135,
        "lon": -136.0804844308576,
        "alt_km": 369.5185351816863,
        "timestamp": "2025-12-27T10:28:57.550144+00:00",
        "meta_object_name": "BOTAN",
        "meta_object_id": "1998-067XP",
        "meta_epoch": "2025-12-26T21:36:00.133056",
        "meta_mean_motion": 15.65926329,
        "meta_eccentricity": 0.00036204,
        "meta_inclination": 51.6276,
        "meta_ra_of_asc_node": 67.6002,
        "meta_arg_of_pericenter": 350.1731,
        "meta_mean_anomaly": 9.9193,
        "meta_ephemeris_type": 0,
        "meta_classification_type": "U",
        "meta_norad_cat_id": 65942,
        "meta_element_set_no": 999,
        "meta_rev_at_epoch": 1208,
        "meta_bstar": 0.0012627246,
        "meta_mean_motion_dot": 0.00132903,
        "meta_mean_motion_ddot": 0,
        "tle_line1": "1 65942U 98067XP  25360.90000154  .00132903  00000+0  12627-2 0  9998",
        "tle_line2": "2 65942  51.6276  67.6002 0003620 350.1731   9.9193 15.65926329 12087"
      },
      "geometry": {
        "type": "Point",
        "coordinates": [
          -136.0804844308576,
          24.291649489653135
        ]
      }
    },
    {
      "type": "Feature",
      "properties": {
        "norad_id": 65943,
        "name": "E-KAGAKU-1",
        "group": "stations",
        "lat": -24.376486550096903,
        "lon": 44.96624763159263,
        "alt_km": 385.73778699383274,
        "timestamp": "2025-12-27T10:28:57.550154+00:00",
        "meta_object_name": "E-KAGAKU-1",
        "meta_object_id": "1998-067XQ",
        "meta_epoch": "2025-12-26T11:34:38.215200",
        "meta_mean_motion": 15.61326456,
        "meta_eccentricity": 0.00014737,
        "meta_inclination": 51.6304,
        "meta_ra_of_asc_node": 70.8185,
        "meta_arg_of_pericenter": 333.5123,
        "meta_mean_anomaly": 26.5795,
        "meta_ephemeris_type": 0,
        "meta_classification_type": "U",
        "meta_norad_cat_id": 65943,
        "meta_element_set_no": 999,
        "meta_rev_at_epoch": 1200,
        "meta_bstar": 0.0007949653,
        "meta_mean_motion_dot": 0.00069021,
        "meta_mean_motion_ddot": 0,
        "tle_line1": "1 65943U 98067XQ  25360.48238675  .00069021  00000+0  79497-3 0  9992",
        "tle_line2": "2 65943  51.6304  70.8185 0001473 333.5123  26.5795 15.61326456 12008"
      },
      "geometry": {
        "type": "Point",
        "coordinates": [
          44.96624763159263,
          -24.376486550096903
        ]
      }
    },
    {
      "type": "Feature",
      "properties": {
        "norad_id": 66052,
        "name": "HRC MONOBLOCK CAMERA",
        "group": "stations",
        "lat": 4.524483814994106,
        "lon": 71.76477124366636,
        "alt_km": 402.1771655736529,
        "timestamp": "2025-12-27T10:28:57.550165+00:00",
        "meta_object_name": "HRC MONOBLOCK CAMERA",
        "meta_object_id": "1998-067XR",
        "meta_epoch": "2025-12-27T04:17:20.433408",
        "meta_mean_motion": 15.55149311,
        "meta_eccentricity": 0.0001868,
        "meta_inclination": 51.6303,
        "meta_ra_of_asc_node": 69.4595,
        "meta_arg_of_pericenter": 257.1988,
        "meta_mean_anomaly": 102.8794,
        "meta_ephemeris_type": 0,
        "meta_classification_type": "U",
        "meta_norad_cat_id": 66052,
        "meta_element_set_no": 999,
        "meta_rev_at_epoch": 1108,
        "meta_bstar": 0.00056068,
        "meta_mean_motion_dot": 0.0003823,
        "meta_mean_motion_ddot": 0,
        "tle_line1": "1 66052U 98067XR  25361.17870872  .00038230  00000+0  56068-3 0  9999",
        "tle_line2": "2 66052  51.6303  69.4595 0001868 257.1988 102.8794 15.55149311 11086"
      },
      "geometry": {
        "type": "Point",
        "coordinates": [
          71.76477124366636,
          4.524483814994106
        ]
      }
    }
  ]
}